NORAD_CAT_ID,OBJECT_NAME,OBJECT_TYPE,EPOCH,MEAN_MOTION,ECCENTRICITY,INCLINATION,RA_OF_ASC_NODE,ARG_OF_PERICENTER,MEAN_ANOMALY,BSTAR,MEAN_MOTION_DOT,MEAN_MOTION_DDOT,TLE_LINE0,TLE_LINE1,TLE_LINE2,SEMIMAJOR_AXIS,PERIOD,APOGEE,PERIGEE,DECAYED
54193.0,STARLINK-5263,PAYLOAD,2024-04-12 13:09:56,15.08831601,0.0002069,53.219,239.2561,100.0556,260.067,5.3743e-05,5.67e-06,0.0,0 STARLINK-5263,1 54193U 22141AN  24103.54856912  .00000567  00000-0  53743-4 0  9996,2 54193  53.2190 239.2561 0002069 100.0556 260.0670 15.08831601 81133,6917.906,95.438,541.202,538.34,0.0
54193.0,STARLINK-5263,PAYLOAD,2024-04-12 14:45:19,15.08829811,0.0001468,53.2172,238.96,85.9857,274.1302,3.8964e-05,3.32e-06,0.0,0 STARLINK-5263,1 54193U 22141AN  24103.61481102  .00000332  00000-0  38964-4 0  9997,2 54193  53.2172 238.9600 0001468  85.9857 274.1302 15.08829811 80913,6917.912,95.438,540.792,538.761,0.0
54193.0,STARLINK-5263,PAYLOAD,2024-04-13 13:00:42,15.08844048,0.0001545,53.2183,234.7972,89.1356,270.9813,0.0001335,1.838e-05,0.0,0 STARLINK-5263,1 54193U 22141AN  24104.54216279  .00001838  00000-0  13350-3 0  9994,2 54193  53.2183 234.7972 0001545  89.1356 270.9813 15.08844048 81288,6917.868,95.437,540.802,538.664,0.0
54193.0,STARLINK-5263,PAYLOAD,2024-04-13 14:36:05,15.08842961,0.0001554,53.2178,234.5001,90.8149,269.3022,0.0001285,1.758e-05,0.0,0 STARLINK-5263,1 54193U 22141AN  24104.60840243  .00001758  00000-0  12850-3 0  9990,2 54193  53.2178 234.5001 0001554  90.8149 269.3022 15.08842961 81064,6917.871,95.437,540.811,538.661,0.0
54193.0,STARLINK-5263,PAYLOAD,2024-04-13 16:11:29,15.08842614,0.0001646,53.2179,234.2026,99.4839,260.6339,0.00018816,2.708e-05,0.0,0 STARLINK-5263,1 54193U 22141AN  24104.67464280  .00002708  00000-0  18816-3 0  9994,2 54193  53.2179 234.2026 0001646  99.4839 260.6339 15.08842614 81073,6917.872,95.437,540.876,538.599,0.0
54193.0,STARLINK-5263,PAYLOAD,2024-04-14 12:51:30,15.08834931,0.0001577,53.2172,230.3352,69.2099,290.9062,0.00030784,4.614e-05,0.0,0 STARLINK-5263,1 54193U 22141AN  24105.53577127  .00004614  00000-0  30784-3 0  9991,2 54193  53.2172 230.3352 0001577  69.2099 290.9062 15.08834931 81433,6917.896,95.438,540.852,538.67,0.0
54193.0,STARLINK-5263,PAYLOAD,2024-04-14 16:02:16,15.08837403,0.0001546,53.217,229.7406,63.7258,296.3893,7.9717e-05,9.81e-06,0.0,0 STARLINK-5263,1 54193U 22141AN  24105.66824906  .00000981  00000-0  79717-4 0  9998,2 54193  53.2170 229.7406 0001546  63.7258 296.3893 15.08837403 81221,6917.888,95.438,540.823,538.684,0.0
54193.0,STARLINK-5263,PAYLOAD,2024-04-15 14:17:40,15.08842413,0.0001767,53.2174,225.5806,58.3997,301.7167,0.00010831,1.436e-05,0.0,0 STARLINK-5263,1 54193U 22141AN  24106.59560963  .00001436  00000-0  10831-3 0  9998,2 54193  53.2174 225.5806 0001767  58.3997 301.7167 15.08842413 81365,6917.873,95.437,540.96,538.516,0.0
54193.0,STARLINK-5263,PAYLOAD,2024-04-16 14:08:27,15.08850195,0.0001189,53.2167,221.1157,102.2616,257.851,0.00025136,3.716e-05,0.0,0 STARLINK-5263,1 54193U 22141AN  24107.58920165  .00003716  00000-0  25136-3 0  9999,2 54193  53.2167 221.1157 0001189 102.2616 257.8510 15.08850195 81519,6917.849,95.437,540.537,538.892,0.0
54193.0,STARLINK-5263,PAYLOAD,2024-04-17 12:23:52,15.08821979,0.0001441,53.2155,216.9533,73.5004,286.6147,-0.0001762,-3.09e-05,0.0,0 STARLINK-5263,1 54193U 22141AN  24108.51657654 -.00003090  00000-0 -17620-3 0  9999,2 54193  53.2155 216.9533 0001441  73.5004 286.6147 15.08821979 81882,6917.935,95.439,540.797,538.804,0.0
54193.0,STARLINK-5263,PAYLOAD,2024-04-18 12:14:39,15.08833116,0.0001386,53.2164,212.4919,68.6041,291.5099,5.0246e-05,5.12e-06,0.0,0 STARLINK-5263,1 54193U 22141AN  24109.51017619  .00000512  00000-0  50246-4 0  9997,2 54193  53.2164 212.4919 0001386  68.6041 291.5099 15.08833116 82030,6917.901,95.438,540.725,538.808,0.0
54193.0,STARLINK-5263,PAYLOAD,2024-04-19 13:40:49,15.08848398,0.000143,53.2166,207.7319,86.6509,273.4647,0.00044904,6.867e-05,0.0,0 STARLINK-5263,1 54193U 22141AN  24110.57001506  .00006867  00000-0  44904-3 0  9995,2 54193  53.2166 207.7319 0001430  86.6509 273.4647 15.08848398 81969,6917.855,95.437,540.709,538.73,0.0
54193.0,STARLINK-5263,PAYLOAD,2024-04-19 16:51:35,15.08857143,0.0001324,53.2165,207.1409,91.7528,268.3616,0.00049098,7.538e-05,0.0,0 STARLINK-5263,1 54193U 22141AN  24110.70248997  .00007538  00000-0  49098-3 0  9992,2 54193  53.2165 207.1409 0001324  91.7528 268.3616 15.08857143 82218,6917.828,95.436,540.609,538.777,0.0
54193.0,STARLINK-5263,PAYLOAD,2024-04-20 11:56:12,15.08845496,0.000175,53.2175,203.57,128.7882,231.3266,9.6692e-05,1.251e-05,0.0,0 STARLINK-5263,1 54193U 22141AN  24111.49737084  .00001251  00000-0  96692-4 0  9998,2 54193  53.2175 203.5700 0001750 128.7882 231.3266 15.08845496 82332,6917.864,95.437,540.939,538.518,0.0
54193.0,STARLINK-5263,PAYLOAD,2024-04-20 13:31:36,15.08846406,0.0001471,53.2169,203.2746,108.7066,251.4086,0.00018402,2.642e-05,0.0,0 STARLINK-5263,1 54193U 22141AN  24111.56361206  .00002642  00000-0  18402-3 0  9992,2 54193  53.2169 203.2746 0001471 108.7066 251.4086 15.08846406 82115,6917.861,95.437,540.743,538.708,0.0
54193.0,STARLINK-5263,PAYLOAD,2024-04-20 16:42:22,15.08849657,0.0001534,53.2167,202.6794,117.2742,242.8406,0.00029601,4.427e-05,0.0,0 STARLINK-5263,1 54193U 22141AN  24111.69609055  .00004427  00000-0  29601-3 0  9999,2 54193  53.2167 202.6794 0001534 117.2742 242.8406 15.08849657 82138,6917.851,95.437,540.777,538.655,0.0
54193.0,STARLINK-5263,PAYLOAD,2024-04-21 13:22:23,15.08835945,0.0001696,53.2167,198.8168,88.3753,271.7434,0.00027395,4.074e-05,0.0,0 STARLINK-5263,1 54193U 22141AN  24112.55721753  .00004074  00000-0  27395-3 0  9991,2 54193  53.2167 198.8168 0001696  88.3753 271.7434 15.08835945 82269,6917.893,95.438,540.931,538.585,0.0
54193.0,STARLINK-5263,PAYLOAD,2024-04-21 14:57:46,15.08840804,0.0001623,53.2164,198.5184,99.2366,260.8809,0.0004027,6.127e-05,0.0,0 STARLINK-5263,1 54193U 22141AN  24112.62345624  .00006127  00000-0  40270-3 0  9996,2 54193  53.2164 198.5184 0001623  99.2366 260.8809 15.08840804 82278,6917.878,95.438,540.866,538.62,0.0
54193.0,STARLINK-5263,PAYLOAD,2024-04-22 10:02:24,15.08832945,0.0001788,53.2163,194.949,101.1825,258.9368,0.00015986,2.257e-05,0.0,0 STARLINK-5263,1 54193U 22141AN  24113.41834267  .00002257  00000-0  15986-3 0  9996,2 54193  53.2163 194.9490 0001788 101.1825 258.9368 15.08832945 82626,6917.902,95.438,541.004,538.53,0.0
54193.0,STARLINK-5263,PAYLOAD,2024-04-22 13:13:10,15.08838773,0.0001707,53.2166,194.354,97.8214,262.2972,0.00015148,2.123e-05,0.0,0 STARLINK-5263,1 54193U 22141AN  24113.55082140  .00002123  00000-0  15148-3 0  9998,2 54193  53.2166 194.3540 0001707  97.8214 262.2972 15.08838773 82414,6917.884,95.438,540.93,538.568,0.0
54193.0,STARLINK-5263,PAYLOAD,2024-04-23 11:28:35,15.08842118,0.0001866,53.2169,190.1924,91.4009,268.7197,0.00037736,5.723e-05,0.0,0 STARLINK-5263,1 54193U 22141AN  24114.47818385  .00005723  00000-0  37736-3 0  9994,2 54193  53.2169 190.1924 0001866  91.4009 268.7197 15.08842118 82783,6917.874,95.437,541.03,538.448,0.0
54193.0,STARLINK-5263,PAYLOAD,2024-04-24 11:19:21,15.08838964,0.0001663,53.2158,185.7282,111.4984,248.6186,1.7958e-05,-2e-08,0.0,0 STARLINK-5263,1 54193U 22141AN  24115.47178220 -.00000002  00000-0  17958-4 0  9993,2 54193  53.2158 185.7282 0001663 111.4984 248.6186 15.08838964 82934,6917.884,95.438,540.899,538.598,0.0
54193.0,STARLINK-5263,PAYLOAD,2024-04-25 09:34:45,15.08837183,0.000164,53.2165,181.5623,118.6268,241.4889,3.4621e-05,2.63e-06,0.0,0 STARLINK-5263,1 54193U 22141AN  24116.39914345  .00000263  00000-0  34621-4 0  9995,2 54193  53.2165 181.5623 0001640 118.6268 241.4889 15.08837183 82847,6917.889,95.438,540.889,538.619,0.0
54193.0,STARLINK-5263,PAYLOAD,2024-04-26 04:39:23,15.08840714,0.0001315,53.216,177.9939,103.8258,256.288,0.00010252,1.344e-05,0.0,0 STARLINK-5263,1 54193U 22141AN  24117.19402004  .00001344  00000-0  10252-3 0  9992,2 54193  53.2160 177.9939 0001315 103.8258 256.2880 15.08840714 83193,6917.878,95.438,540.653,538.834,0.0
54193.0,STARLINK-5263,PAYLOAD,2024-04-26 14:11:41,15.08849016,0.0001293,53.215,176.214,78.0126,282.1011,0.00019016,2.741e-05,0.0,0 STARLINK-5263,1 54193U 22141AN  24117.59145375  .00002741  00000-0  19016-3 0  9990,2 54193  53.2150 176.2140 0001293  78.0126 282.1011 15.08849016 83020,6917.853,95.437,540.612,538.823,0.0
54193.0,STARLINK-5263,PAYLOAD,2024-04-27 09:16:20,15.08824932,0.0001361,53.2147,172.6482,94.9896,265.1251,-0.00014539,-2.6e-05,0.0,0 STARLINK-5263,1 54193U 22141AN  24118.38634703 -.00002600  00000-0 -14539-3 0  9997,2 54193  53.2147 172.6482 0001361  94.9896 265.1251 15.08824932 83377,6917.926,95.439,540.733,538.85,0.0
54193.0,STARLINK-5263,PAYLOAD,2024-04-27 20:24:01,15.0884089,0.0001343,53.2159,170.567,91.6609,268.4537,4.1107e-05,3.66e-06,0.0,0 STARLINK-5263,1 54193U 22141AN  24118.85002036  .00000366  00000-0  41107-4 0  9994,2 54193  53.2159 170.5670 0001343  91.6609 268.4537 15.08840890 83444,6917.878,95.437,540.672,538.814,0.0
54193.0,STARLINK-5263,PAYLOAD,2024-04-28 10:42:30,15.08831165,0.0001603,53.2165,167.8925,93.1903,266.9273,-0.00014235,-2.552e-05,0.0,0 STARLINK-5263,1 54193U 22141AN  24119.44618766 -.00002552  00000-0 -14235-3 0  9995,2 54193  53.2165 167.8925 0001603  93.1903 266.9273 15.08831165 83531,6917.907,95.438,540.881,538.663,0.0
54193.0,STARLINK-5263,PAYLOAD,2024-04-29 10:33:17,15.08836212,0.000137,53.2154,163.4301,104.409,255.7054,0.0001778,2.543e-05,0.0,0 STARLINK-5263,1 54193U 22141AN  24120.43978885  .00002543  00000-0  17780-3 0  9993,2 54193  53.2154 163.4301 0001370 104.4090 255.7054 15.08836212 83680,6917.892,95.438,540.705,538.809,0.0
54193.0,STARLINK-5263,PAYLOAD,2024-04-30 08:48:41,15.08847437,0.0001276,53.2155,159.2665,93.0203,267.0935,0.00034166,5.155e-05,0.0,0 STARLINK-5263,1 54193U 22141AN  24121.36714498  .00005155  00000-0  34166-3 0  9993,2 54193  53.2155 159.2665 0001276  93.0203 267.0935 15.08847437 83596,6917.858,95.437,540.605,538.84,0.0
